start=new Date('2022-12-04T00:00:00.000Z').valueOf();
sats=[{"EPHEMERIS_TYPE":"0","ARG_OF_PERICENTER":"15.3993","ELEMENT_SET_NO":"999","MEAN_ANOMALY":"344.7289","EPOCH":"2022-12-03T20:37:16.009248","OBJECT_TYPE":"PAYLOAD","MEAN_MOTION_DDOT":"0.0000000000000","MEAN_ELEMENT_THEORY":"SGP4","TIME_SYSTEM":"UTC","OBJECT_ID":"2022-099AQ","INCLINATION":"97.6557","RA_OF_ASC_NODE":"96.7428","SEMIMAJOR_AXIS":"6941.151","CENTER_NAME":"EARTH","OBJECT_NAME":"STARLINK-4461","MEAN_MOTION":"15.01258578","PERIOD":"95.920","REF_FRAME":"TEME","PERIAPSIS":"561.704","MEAN_MOTION_DOT":"-0.00000731","ECCENTRICITY":"0.00018900","DECAY_DATE":null,"TLE_LINE2":"2 53503  97.6557  96.7428 0001890  15.3993 344.7289 15.01258578 17413","FILE":"3680495","LAUNCH_DATE":"2022-08-12","BSTAR":"-0.00005229900000","APOAPSIS":"564.328","REV_AT_EPOCH":"1741","COUNTRY_CODE":"US","RCS_SIZE":"LARGE","CLASSIFICATION_TYPE":"U","SITE":"AFWTR","NORAD_CAT_ID":"53503","TLE_LINE1":"1 53503U 22099AQ  22337.85921307 -.00000731  00000-0 -52299-4 0  9994","GP_ID":"219456805"},{"EPHEMERIS_TYPE":"0","ARG_OF_PERICENTER":"13.5905","ELEMENT_SET_NO":"999","MEAN_ANOMALY":"346.5373","MEAN_MOTION_DDOT":"0.0000000000000","EPOCH":"2022-12-03T20:42:34.302528","OBJECT_TYPE":"PAYLOAD","MEAN_ELEMENT_THEORY":"SGP4","INCLINATION":"97.6552","OBJECT_ID":"2022-099AR","TIME_SYSTEM":"UTC","RA_OF_ASC_NODE":"96.7450","SEMIMAJOR_AXIS":"6941.023","CENTER_NAME":"EARTH","OBJECT_NAME":"STARLINK-4448","MEAN_MOTION":"15.01300058","REF_FRAME":"TEME","PERIOD":"95.917","PERIAPSIS":"561.487","MEAN_MOTION_DOT":"-0.00007686","LAUNCH_DATE":"2022-08-12","TLE_LINE2":"2 53504  97.6552  96.7450 0002019  13.5905 346.5373 15.01300058 17416","FILE":"3680495","BSTAR":"-0.00059378000000","DECAY_DATE":null,"ECCENTRICITY":"0.00020190","APOAPSIS":"564.290","REV_AT_EPOCH":"1741","RCS_SIZE":"LARGE","CLASSIFICATION_TYPE":"U","COUNTRY_CODE":"US","NORAD_CAT_ID":"53504","SITE":"AFWTR","TLE_LINE1":"1 53504U 22099AR  22337.86289702 -.00007686  00000-0 -59378-3 0  9992","GP_ID":"219456897"},{"MEAN_ANOMALY":"356.3870","ELEMENT_SET_NO":"999","EPHEMERIS_TYPE":"0","ARG_OF_PERICENTER":"3.7365","CENTER_NAME":"EARTH","SEMIMAJOR_AXIS":"6941.141","INCLINATION":"97.6556","TIME_SYSTEM":"UTC","OBJECT_ID":"2022-099AS","RA_OF_ASC_NODE":"96.4758","MEAN_ELEMENT_THEORY":"SGP4","MEAN_MOTION_DDOT":"0.0000000000000","EPOCH":"2022-12-03T14:08:00.408768","OBJECT_TYPE":"PAYLOAD","PERIAPSIS":"561.926","MEAN_MOTION_DOT":"0.00000007","REF_FRAME":"TEME","PERIOD":"95.919","MEAN_MOTION":"15.01261981","OBJECT_NAME":"STARLINK-4446","GP_ID":"219451045","NORAD_CAT_ID":"53505","SITE":"AFWTR","TLE_LINE1":"1 53505U 22099AS  22337.58889362  .00000007  00000-0  51017-5 0  9992","CLASSIFICATION_TYPE":"U","RCS_SIZE":"LARGE","COUNTRY_CODE":"US","FILE":"3680253","TLE_LINE2":"2 53505  97.6556  96.4758 0001555   3.7365 356.3870 15.01261981 17135","LAUNCH_DATE":"2022-08-12","BSTAR":"0.00000510170000","DECAY_DATE":null,"ECCENTRICITY":"0.00015550","REV_AT_EPOCH":"1713","APOAPSIS":"564.085"},{"MEAN_MOTION":"15.01259345","OBJECT_NAME":"STARLINK-4437","MEAN_MOTION_DOT":"-0.00000013","PERIAPSIS":"561.916","REF_FRAME":"TEME","PERIOD":"95.919","CLASSIFICATION_TYPE":"U","RCS_SIZE":"LARGE","COUNTRY_CODE":"US","REV_AT_EPOCH":"1741","APOAPSIS":"564.112","FILE":"3680495","TLE_LINE2":"2 53506  97.6539  96.7391 0001582  11.5320 348.5940 15.01259345 17414","BSTAR":"0.00000358500000","LAUNCH_DATE":"2022-08-12","ECCENTRICITY":"0.00015820","DECAY_DATE":null,"GP_ID":"219456806","TLE_LINE1":"1 53506U 22099AT  22337.85760748 -.00000013  00000-0  35850-5 0  9994","NORAD_CAT_ID":"53506","SITE":"AFWTR","EPHEMERIS_TYPE":"0","ARG_OF_PERICENTER":"11.5320","MEAN_ANOMALY":"348.5940","ELEMENT_SET_NO":"999","MEAN_ELEMENT_THEORY":"SGP4","MEAN_MOTION_DDOT":"0.0000000000000","OBJECT_TYPE":"PAYLOAD","EPOCH":"2022-12-03T20:34:57.286272","CENTER_NAME":"EARTH","SEMIMAJOR_AXIS":"6941.149","RA_OF_ASC_NODE":"96.7391","INCLINATION":"97.6539","OBJECT_ID":"2022-099AT","TIME_SYSTEM":"UTC"},{"OBJECT_NAME":"STARLINK-4444","MEAN_MOTION":"15.01254627","PERIOD":"95.920","REF_FRAME":"TEME","MEAN_MOTION_DOT":"-0.00001579","PERIAPSIS":"562.092","APOAPSIS":"563.965","REV_AT_EPOCH":"1713","ECCENTRICITY":"0.00013490","DECAY_DATE":null,"TLE_LINE2":"2 53507  97.6559  96.4756 0001349   7.9882 352.1364 15.01254627 17130","FILE":"3680253","LAUNCH_DATE":"2022-08-12","BSTAR":"-0.00011838000000","COUNTRY_CODE":"US","RCS_SIZE":"LARGE","CLASSIFICATION_TYPE":"U","TLE_LINE1":"1 53507U 22099AU  22337.58705072 -.00001579  00000-0 -11838-3 0  9991","SITE":"AFWTR","NORAD_CAT_ID":"53507","GP_ID":"219450281","EPHEMERIS_TYPE":"0","ARG_OF_PERICENTER":"7.9882","ELEMENT_SET_NO":"999","MEAN_ANOMALY":"352.1364","EPOCH":"2022-12-03T14:05:21.182208","OBJECT_TYPE":"PAYLOAD","MEAN_MOTION_DDOT":"0.0000000000000","MEAN_ELEMENT_THEORY":"SGP4","RA_OF_ASC_NODE":"96.4756","OBJECT_ID":"2022-099AU","TIME_SYSTEM":"UTC","INCLINATION":"97.6559","CENTER_NAME":"EARTH","SEMIMAJOR_AXIS":"6941.163"},{"MEAN_ANOMALY":"327.6442","ELEMENT_SET_NO":"999","ARG_OF_PERICENTER":"32.4888","EPHEMERIS_TYPE":"0","SEMIMAJOR_AXIS":"6941.178","CENTER_NAME":"EARTH","INCLINATION":"97.6562","OBJECT_ID":"2022-099AV","TIME_SYSTEM":"UTC","RA_OF_ASC_NODE":"96.4799","MEAN_ELEMENT_THEORY":"SGP4","MEAN_MOTION_DDOT":"0.0000000000000","EPOCH":"2022-12-03T14:10:40.953792","OBJECT_TYPE":"PAYLOAD","PERIAPSIS":"561.843","MEAN_MOTION_DOT":"-0.00002019","REF_FRAME":"TEME","PERIOD":"95.920","MEAN_MOTION":"15.01249987","OBJECT_NAME":"STARLINK-4443","GP_ID":"219450472","NORAD_CAT_ID":"53508","SITE":"AFWTR","TLE_LINE1":"1 53508U 22099AV  22337.59075178 -.00002019  00000-0 -15267-3 0  9990","RCS_SIZE":"LARGE","CLASSIFICATION_TYPE":"U","COUNTRY_CODE":"US","FILE":"3680253","TLE_LINE2":"2 53508  97.6562  96.4799 0001729  32.4888 327.6442 15.01249987 17130","BSTAR":"-0.00015267000000","LAUNCH_DATE":"2022-08-12","ECCENTRICITY":"0.00017290","DECAY_DATE":null,"REV_AT_EPOCH":"1713","APOAPSIS":"564.243"},{"MEAN_ELEMENT_THEORY":"SGP4","MEAN_MOTION_DDOT":"0.0000000000000","EPOCH":"2022-12-03T14:00:21.469248","OBJECT_TYPE":"PAYLOAD","CENTER_NAME":"EARTH","SEMIMAJOR_AXIS":"6941.153","INCLINATION":"97.6527","TIME_SYSTEM":"UTC","OBJECT_ID":"2022-099AW","RA_OF_ASC_NODE":"96.4642","EPHEMERIS_TYPE":"0","ARG_OF_PERICENTER":"7.2648","MEAN_ANOMALY":"352.8595","ELEMENT_SET_NO":"999","RCS_SIZE":"LARGE","CLASSIFICATION_TYPE":"U","COUNTRY_CODE":"US","LAUNCH_DATE":"2022-08-12","TLE_LINE2":"2 53509  97.6527  96.4642 0001256   7.2648 352.8595 15.01258118 17133","FILE":"3680253","BSTAR":"0.00000254500000","DECAY_DATE":null,"ECCENTRICITY":"0.00012560","APOAPSIS":"563.889","REV_AT_EPOCH":"1713","GP_ID":"219451427","NORAD_CAT_ID":"53509","SITE":"AFWTR","TLE_LINE1":"1 53509U 22099AW  22337.58358182 -.00000026  00000-0  25450-5 0  9991","MEAN_MOTION":"15.01258118","OBJECT_NAME":"STARLINK-4402","PERIAPSIS":"562.146","MEAN_MOTION_DOT":"-0.00000026","REF_FRAME":"TEME","PERIOD":"95.920"},{"CENTER_NAME":"EARTH","SEMIMAJOR_AXIS":"6941.167","OBJECT_ID":"2022-099AX","TIME_SYSTEM":"UTC","INCLINATION":"97.6520","RA_OF_ASC_NODE":"96.7299","MEAN_ELEMENT_THEORY":"SGP4","OBJECT_TYPE":"PAYLOAD","EPOCH":"2022-12-03T20:26:35.954592","MEAN_MOTION_DDOT":"0.0000000000000","MEAN_ANOMALY":"3.3973","ELEMENT_SET_NO":"999","ARG_OF_PERICENTER":"356.7242","EPHEMERIS_TYPE":"0","GP_ID":"219456819","SITE":"AFWTR","NORAD_CAT_ID":"53510","TLE_LINE1":"1 53510U 22099AX  22337.85180503  .00000362  00000-0  32801-4 0  9992","COUNTRY_CODE":"US","CLASSIFICATION_TYPE":"U","RCS_SIZE":"LARGE","DECAY_DATE":null,"ECCENTRICITY":"0.00014030","TLE_LINE2":"2 53510  97.6520  96.7299 0001403 356.7242   3.3973 15.01253381 17411","BSTAR":"0.00003280100000","FILE":"3680496","LAUNCH_DATE":"2022-08-12","REV_AT_EPOCH":"1741","APOAPSIS":"564.006","PERIAPSIS":"562.058","MEAN_MOTION_DOT":"0.00000362","PERIOD":"95.920","REF_FRAME":"TEME","MEAN_MOTION":"15.01253381","OBJECT_NAME":"STARLINK-4441"},{"FILE":"3680253","TLE_LINE2":"2 53527  53.2180  25.9691 0001943  38.0303 322.0826 15.08840520 16181","BSTAR":"0.00006515400000","LAUNCH_DATE":"2022-08-19","ECCENTRICITY":"0.00019430","DECAY_DATE":null,"APOAPSIS":"541.088","REV_AT_EPOCH":"1618","CLASSIFICATION_TYPE":"U","RCS_SIZE":"LARGE","COUNTRY_CODE":"US","NORAD_CAT_ID":"53527","SITE":"AFETR","TLE_LINE1":"1 53527U 22101A   22337.52080029  .00000749  00000-0  65154-4 0  9996","GP_ID":"219451618","OBJECT_NAME":"STARLINK-4511","MEAN_MOTION":"15.08840520","REF_FRAME":"TEME","PERIOD":"95.438","PERIAPSIS":"538.400","MEAN_MOTION_DOT":"0.00000749","MEAN_MOTION_DDOT":"0.0000000000000","OBJECT_TYPE":"PAYLOAD","EPOCH":"2022-12-03T12:29:57.145056","MEAN_ELEMENT_THEORY":"SGP4","INCLINATION":"53.2180","OBJECT_ID":"2022-101A","TIME_SYSTEM":"UTC","RA_OF_ASC_NODE":"25.9691","CENTER_NAME":"EARTH","SEMIMAJOR_AXIS":"6917.879","EPHEMERIS_TYPE":"0","ARG_OF_PERICENTER":"38.0303","ELEMENT_SET_NO":"999","MEAN_ANOMALY":"322.0826"},{"MEAN_MOTION_DOT":"-0.00000930","PERIAPSIS":"538.206","PERIOD":"95.438","REF_FRAME":"TEME","MEAN_MOTION":"15.08830903","OBJECT_NAME":"STARLINK-4503","GP_ID":"219450283","TLE_LINE1":"1 53528U 22101B   22337.52449334 -.00000930  00000-0 -40359-4 0  9999","SITE":"AFETR","NORAD_CAT_ID":"53528","COUNTRY_CODE":"US","RCS_SIZE":"LARGE","CLASSIFICATION_TYPE":"U","APOAPSIS":"541.340","REV_AT_EPOCH":"1618","ECCENTRICITY":"0.00022650","DECAY_DATE":null,"LAUNCH_DATE":"2022-08-19","TLE_LINE2":"2 53528  53.2183  25.9544 0002265  34.1997 325.9140 15.08830903 16181","FILE":"3680253","BSTAR":"-0.00004035900000","MEAN_ANOMALY":"325.9140","ELEMENT_SET_NO":"999","EPHEMERIS_TYPE":"0","ARG_OF_PERICENTER":"34.1997","SEMIMAJOR_AXIS":"6917.908","CENTER_NAME":"EARTH","RA_OF_ASC_NODE":"25.9544","OBJECT_ID":"2022-101B","TIME_SYSTEM":"UTC","INCLINATION":"53.2183","MEAN_ELEMENT_THEORY":"SGP4","OBJECT_TYPE":"PAYLOAD","EPOCH":"2022-12-03T12:35:16.224576","MEAN_MOTION_DDOT":"0.0000000000000"}];
